[{"OBJECT_NAME":"JILIN-1 GAOFEN 03D15","OBJECT_ID":"2022-019R","EPOCH":"2026-03-09T23:58:07.561632","MEAN_MOTION":15.6920844,"ECCENTRICITY":0.00039863,"INCLINATION":97.369,"RA_OF_ASC_NODE":160.232,"ARG_OF_PERICENTER":172.8619,"MEAN_ANOMALY":187.27,"EPHEMERIS_TYPE":0,"CLASSIFICATION_TYPE":"U","NORAD_CAT_ID":51839,"ELEMENT_SET_NO":999,"REV_AT_EPOCH":22441,"BSTAR":0.0010884373,"MEAN_MOTION_DOT":0.00128061,"MEAN_MOTION_DDOT":0},{"OBJECT_NAME":"STARLINK-11130 [DTC]","OBJECT_ID":"2024-107F","EPOCH":"2026-03-09T18:01:15.467808","MEAN_MOTION":15.69717485,"ECCENTRICITY":0.0001916,"INCLINATION":53.1585,"RA_OF_ASC_NODE":251.102,"ARG_OF_PERICENTER":127.4928,"MEAN_ANOMALY":232.6264,"EPHEMERIS_TYPE":0,"CLASSIFICATION_TYPE":"U","NORAD_CAT_ID":59950,"ELEMENT_SET_NO":999,"REV_AT_EPOCH":10215,"BSTAR":-3.0129258e-5,"MEAN_MOTION_DOT":-4.24e-5,"MEAN_MOTION_DDOT":0}]
